gymId,name,address,lat,lng,location,shortDescription,longDescription
12756,Akalla Gårds utegym,Imatragatan 230,59.41237448,17.91488069,"{""lat"": 59.41237447584166, ""lng"": 17.91488068886686}",Ett komplett utegym vid Akalla gårds bollplan.,"Du åker blå tunnelbanelinje till Akalla och promenerar cirka 350 meter till gymmet.
Här kan du träna:
dips, 
 situps, 
 knäböj, 
 marklyft, 
 upphopp, 
 ryggdrag, 
 armgång, 
 bänkpress, 
 axelpress, 
 balansträning. Här finns även en räckhäv i olika nivåer och en stretchyta."
15335,Alviks strands utegym,Gustavslundsvägen,59.33166811,17.98555543,"{""lat"": 59.33166811322353, ""lng"": 17.985555426441763}",Välkommen att träna i Alviks strandpark!,"Fakta om anläggningen:
På två platser i parken finns ett utegym i trä och metall. Ett förslag till träningsprogram finns vid redskapen. Underlaget är baksand och stenmjöl.
Bra att veta:
Det tar cirka 5 minuter att gå från Alviks station."
14997,Aromen utegym,Ingenjörsvägen 25,59.30722586,18.02578485,"{""lat"": 59.30722586046123, ""lng"": 18.02578485342317}","Aromen är en tillfällig aktivitetsplats med bland annat utegym, multisportplan och basketkorgar.","Aktivitetsplatsen Aromen ligger mellan Ingenjörsvägen och Blomsterdalen.
Fakta om anläggningen::
träningsredskap i trä, 
 armhävningsstänger i olika höjder, 
 sit-up-ramp för mage, 
 axelpress med stockar, 
 grusunderlag, Bra att veta:
Vid aktivitetsplatsen finns även:
en öppen bollplan med fotbolls- och bandymål, 
 basketkorgar, 
 sittbänkar med bord, 
 grillplats, Övrigt
Platsen ligger nära kollektivtrafik. 
 Parken ingår i stadsutvecklingsprojekt Södertäljevägen och på sikt kommer parken att bebyggas. "
15474,Bandängens utegym,Harpsundsvägen 52,59.26500227,18.0445733,"{""lat"": 59.26500227080058, ""lng"": 18.044573297600863}",Välkommen till ett litet och belyst utegym med grusunderlag beläget på Bandhagens öppna ängar.,"Redskap
Utegymmet är utrustat med redskap av trä och metall för allroundträning:
Gäddan kort, 
 Gäddan lång, 
 Ekoxen låg, 
 Ekoxen hög, 
 Gråsuggan låg, 
 Gråsuggan hög, 
 Trädet, 
 Busken, 
Utegymmet är till för spontanidrott - det kan alltså inte bokas och är inte avsedd för organiserad idrott.

En bit från utegymmet finns flera möjligheter till spontanidrott såsom bollplan och basketplan. Utöver detta finns även lekpark, plaskdamm och sittplatser med bord, samt grillplats i närheten.
Utegymmet har belysning till klockan 22.00.
Närmaste stationer:
Högdalen (tunnelbana), 
 Bandhagen (tunnelbana), "
15453,Beckomberga utegym,Grafitgränd,59.36153043,17.90453877,"{""lat"": 59.36153043307269, ""lng"": 17.904538766918623}",Välkommen att träna på det nybyggda utegymmet i Beckomberga.,"Fakta om anläggningen:
Utegymmet byggdes våren 2022. Redskapen gjorda i metall och trä och står på ett underlag av träflis. På redskapen finns skyltar med förslag på övningar.
Bra att veta:
Utegymmet ligger i förlängningen av Grafitgränd i Beckomberga. Närmaste busshållplats är Styresman Sanders väg som ligger på Spångavägen. "
12757,Björkhagens utegym,,59.29386709,18.12642801,"{""lat"": 59.29386709492052, ""lng"": 18.126428011094518}","Utegymmet ligger vid startplatsen för Björkhagsspåret, perfekt för ett pass före eller efter din löparrunda.","Fakta om anläggningen:
Redskap finns för marklyft, ryggdrag, armgång, situps, dips, bänkpress, axelpress, knäböj, upphopp och balansträning. , 
 Här finns även räckhäv i olika nivåer samt en stretchyta. 
 Björkhagsspåret är belyst fram till klockan 22.00. Bra att veta:
Tunnelbana grön linje till Björkhagen, promenad cirka 700 meter. "
14826,Blåsutparkens utegym,Blåsutvägen 15,59.29301745,18.0911846,"{""lat"": 59.29301744788078, ""lng"": 18.091184599455826}",Välkommen till två gym med barkunderlag belägna i Blåsutparken - ett ute och seniorgym.,"
Gymmet ligger nära boulebana, bollplan, lekpark och hundrastgård. Utegymmet är utrustat med redskap av trä och metall för allroundträning och består av redskapen:
Korta gäddan, 
 Långa gäddan, 
 Trädet, 
 Busken, 
 Låg ekoxe, 
 Hög ekoxe, 
 Balanspall (tre stycken), Seniorgym
Gymmet ligger nära boulebana, bollplan, härliga gräsytor och grillplats.
Seniorgymmet har redskap som inte är så tunga och har tonvikt på lågintensiv träning och balansträning och består av redskapen:
Intill utegymmet finns flera möjligheter till spontanidrott såsom bollplan och boulebanor. Utöver detta finns även lekpark, hundrastgård och sittplatser med bord, samt grillplats i närheten.
Utegymmet har belysning fram till klockan 22.00.
Närmaste station: Blåsut (tunnelbana)"
13617,Bredängs utegym,,59.29560822,17.92233003,"{""lat"": 59.295608221855304, ""lng"": 17.92233002601551}",Stockholms stads erbjuder ett mindre utegym helt i trä intill Bredängs camping.,"Hitta hit
Närmaste tunnelbana är Bredäng och om du följer skyltningen för Bredängs camping hittar du utegymmet strax efter campingen och bredvid skogen. <br>
Det finns en parkering bredvid parkeringen.
Kombinera din träning
Gå eller spring i Bredängsspåret som är ett belyst motionsspår på 3,2 km. "
15486,Broparkens utegym,Stora Essingen,59.32138545,17.99828371,"{""lat"": 59.32138545281616, ""lng"": 17.99828371378251}","Detta utegym ligger längs strandpromenaden i Broparken, på östra delen av Stora Essingen.","Fakta om anläggningen:
På utegymmet finns redskap för till exempel chins, situps, dips, axelpress och balansträning. Redskapen är i metall och trä. 
 Intill gymmet finns en plattform i trä för stretch och andra egna övningar. 
 Belysning finns. 
 Anläggningen snöröjs inte. Bra att veta:
Utegymmet ligger inom ett område där hundar får släppas lösa. "
13619,Brotorp utegym,,59.27223977,18.14849364,"{""lat"": 59.272239769463454, ""lng"": 18.148493639495868}",Brotorp utegym är ett komplett utegym. Här finns även en räckhäv i olika nivåer samt en stretchyta.,"Utegymmet har lätta vikter.
I anslutning till utegymmet finns två boulebanor samt en fotbollsplan på grus. "
14827,Dalbottens specialgym,Vrenavägen 16,59.26238872,18.0475873,"{""lat"": 59.2623887208082, ""lng"": 18.047587296818136}",Välkommen till stadsdelsförvaltningens specialgym med grusunderlag beläget i Dalbotten.,"Utrustning
Utegymmet är utrustat med redskap av trä och metall för allroundträning: 
Labyrintbord, 
 Stege, 
 Healt walker, 
 Push hands, 
 Benpress, 
 Trappa, 
 Pelare, 
 Fjädrande gång, 
 Roddmaskin, Seniorgym
Seniorgymmet har redskap som inte är så tunga och har tonvikt på lågintensiv träning och balansträning.
Övrigt
Utegymmet är till för spontanidrott - det kan alltså inte bokas och är inte avsedd för organiserad idrott.
Kom ihåg att visa hänsyn till närboende och andra besökare. Om det är många som vill träna samtidigt, tänk på att samsas och ge alla möjlighet att träna.
Intill utegymmet finns möjlighet till spontanidrott såsom boulebanor. Utöver detta finns även Intill finns lekpark och sittplatser med bord samt grillplatser.
Närmaste station: Högdalen (tunnelbana)"
15160,Elektraparkens utegym,Korsningen Dansbanevägen & Västberga Allé,59.2968529,18.01088606,"{""lat"": 59.29685290136976, ""lng"": 18.010886055275385}",Nybyggt utegym i Västberga som ligger i det nordöstra hörnet av Elektraparken.,"Om utegymmet
I utegymmet finns varierad utrustning i form av till exempel barr, armgång, rygglyft och sit-up. Här kan du träna i stort sett hela kroppen: armar, axlar, bål, rygg, greppstyrka, ben och stretching.
Bra att veta:
Utegymmet stod klart 2021. 
 I parken finns stora gräsytor för lek, spontanidrott och picknick. Det finns också en lekplats med en liten vattenlek, grillplats och basketplan. 
 I parken finns en hundrastgård. 
 Närmste busshållplats är Elektravägen eller Karusellplan. Närmaste tunnelbana är Telefonplan eller Midsommarkransen. 
 I närheten finns Västberga handelsplats. "
12752,Eriksdals utegym,Hammarby Slussväg 20,59.30462498,18.07381173,"{""lat"": 59.30462497543843, ""lng"": 18.073811726019777}",Ett utegym i trä intill Eriksdalsbadet. Gymmet har tillgänglighetsanpassade redskap.,"Fakta om anläggningen:
Det är ett komplett utegym med marklyft, ryggdrag, armgång, situps, dips, bänkpress, axelpress, knäböj, upphopp och balansträning.
Här finns även en räckhäv i olika nivåer samt en stretchyta."
13620,Fagersjöskogens utegym,,59.25070692,18.0757764,"{""lat"": 59.25070692215534, ""lng"": 18.07577639667293}",Ett utegym intill Fagersjöspåret.,"Om utegymmet i Fagersjöskogen
Utegymmet består av redskapen:
marklyft, 
 knäböj, 
 dips, 
 chinsräcke, 
 sit-ups bräda, 
 armgång och stubbar för upphoppsträning , Bra att veta: 
Gymmet är placerat i anslutning till Fagersjöskogens motionsspår (elljusspår 3 km). Det finns flera platser för spontanidrott i närheten så som bollplan, basketplan och pingisbord."
12753,Farsta utegym,Farstagårdsvägen 10,59.23977014,18.07997433,"{""lat"": 59.23977014094006, ""lng"": 18.079974325988672}",Utanför grindarna till Farsta idrottsplats hittar du ett av våra populära utegym i trä.,"Fakta om anläggningen:
Det är ett komplett utegym med marklyft, ryggdrag, armgång, situps, dips, bänkpress, axelpress, knäböj, upphopp och balansträning. 
 Här finns även en räckhäv i olika nivåer samt en stretchyta. Bra att veta:
Detta är det första utegymmet som placerats i direkt anslutning till en idrottsplats - Farsta IP. Platsen är vald utifrån närheten till just idrottsplatsen med ishallen, fotbollsplanen samt de nya provisoriska idrottshallarna. 
 I närområdet finns även Farsta sim- och idrottshall, Magelungen, Farsta gymnasium och de naturliga frilufts- och rekreationsområdena. "
13621,Farstanäsets utegym,,59.23875456,18.07079041,"{""lat"": 59.23875455675705, ""lng"": 18.07079040602115}",Utegym på Farstanäset.,"Fakta om anläggningen:
Ett välutrustat stockgym beläget på Farstanäset i närheten av Farstanäset friluftsgård. 
Gymmet har en komplett utrustning för att träna hela kroppen, det finns:
armhävstång, 
 chins, 
 situps-bänkar, 
 marklyft, 
 bänkpress, 
 balansgång, 
 dipps, 
 marklyft, 
 benlyft, 
 armgång, 
 hoppstubbar, 
 stretchyta , Bra att veta: 
Det finns parkeringsmöjlighet i nära anslutning till gymmet. 
I närheten av gymmet finns en tidigare slalombacke – perfekt för backträning eller intervallträning. "
13623,Farstastrandsbadets utegym,,59.23721525,18.08449718,"{""lat"": 59.23721525254728, ""lng"": 18.08449717967076}",Utegym vid Farstastrandsbadet.,"Fakta om anläggningen:
På gymmet finns möjlighet att aktivera hela kroppen.
armgång, 
 situps-bräda, 
 benträning, 
 balansträning, 
 stretchyta, Bra att veta:
I närheten av gymmet finns Farstastrandsbadet, volleybollplan och det är nära till Farsta IP."
15209,Fatbursparkens utegym,,59.31540005,18.06879073,"{""lat"": 59.31540005035015, ""lng"": 18.068790726440586}",Gymmet är i metall och i anslutning till stationerna finns förslag på olika övningar. Här kan du träna både styrka och balans.,
14829,Fjäderns utegym,Askersundsgatan 14,59.25904055,18.02931254,"{""lat"": 59.25904054911213, ""lng"": 18.029312538313846}",Välkommen till ett välutrustat och belyst stockgym med grusunderlag beläget intill Askersundsgatan och Hagsätravägen.,"Utrustning
Utegymmet består av redskapen:
Bänkpress, 
 Knäböj, 
 Marklyft, 
 Axelpress, 
 Sit up-ramp, 
 Dips, 
 Armhäv, 
 Stretchyta, Övrigt
Utegymmet är till för spontanidrott – det kan alltså inte bokas och är inte avsedd för organiserad idrott.
Kom ihåg att visa hänsyn till närboende och andra besökare. Om det är många som vill träna samtidigt, tänk på att samsas och ge alla möjlighet att träna.
Intill utegymmet finns flera möjligheter till spontanidrott såsom bollplan och basketplan. Utöver detta finns även lekpark och sittplatser med bord i närheten.
Utegymmet har belysning fram till klockan 22.00.
Närmaste station: Rågsved (tunnelbana)"
13680,Flatenbadet utegym,,59.25356265,18.16076176,"{""lat"": 59.25356264943242, ""lng"": 18.16076175668439}",Ett tillgänglighetsanpassat utegym vid Flatenbadet.,Vid Flatenbadet finns ett komplett utegym som i största möjliga mån har anpassats efter en person i rullstol. Utegymmet har även två extra redskap som är exklusiva för de tillgänglighetsanpassade utegymmen.
13625,Fruängens utegym,Korsningen av Vantörsvägen & Elsa Borgs Gata,59.2829317,17.96327471,"{""lat"": 59.282931703056384, ""lng"": 17.96327471294674}","Nybyggt utegym i Fruängen nära Fruängens skola, med gångavstånd till Fruängens centrum.","Om utegymmet
I utegymmet finns utrustning i stockar med bland annat armgång, ribbstolar, axelpress och bänkpress. Det finns även barr, lutande vägg, ryggdrag och stocklyft. 
Bra att veta:
Intill utegymmet finns en konstgräsplan. 
 Belysning, 
 Utegymmet stod klart 2021. "
13627,Grimsta utegym,,59.35784847,17.8654549,"{""lat"": 59.357848470856304, ""lng"": 17.865454897607457}",Grimsta utegym ligger vid Grimsta gärde.,"Fakta om anläggningen:
Utegymmet ligger öppet nära krematoriet i Grimsta. Redskapen är alla av trä och anläggningen står på underlag av grus.
Det finns redskap för:
marklyft, 
 ryggdrag, 
 armgång, 
 situps, 
 dips, 
 bänkpress, 
 axelpress, 
 knäböj, 
 upphopp, 
 balansträning. Här finns också ett trädäck som stretchyta.
Bra att veta:
Intill utegymmet finns en bollplan med grus och i närheten ligger Grimsta motionsspår. "
13628,Grimstaskogens utegym,Grimsta motionsspår vid Grimstafältet,59.36181226,17.84644336,"{""lat"": 59.361812263331466, ""lng"": 17.846443363867834}",Grimstaskogens utegym är ett enklare utegym vid startpunkten av Grimsta motionsspår vid Grimstafältet.,"Fakta om anläggningen:
Ett enklare utegym med underlag av grus och redskap i metall. 
Här kan du:
göra situps, 
 göra ryggdrag, 
 träna armar. Bra att veta:
Vid utegymmet ligger startpunkten för Grimsta motionsspår."
15316,Gubbängens utegym,"Gubbängsfältet, nära Gubbängsskolan.",59.26151732,18.09025928,"{""lat"": 59.261517318720834, ""lng"": 18.090259279965508}",Utegym vid Gubbängsfältet.,"Fakta om anläggningen:
 Ett välutrustat utegym med redskap för hela kroppen. 
Redskap för chins, 
 pull-ups, 
 armövningar, 
 rygglyft, 
 hoppstenar, 
 dipsräcke, 
 axelpress, 
 knäböj, 
 vad- och benträning. , Bra att veta: 
Gymmet är beläget strax söder om Gubbängsskolan, och ligger nära idrottsplaner, fotbollsplaner och Gubbängshallen."
14993,Gulsippans utegym,,59.38752784,17.81644261,"{""lat"": 59.3875278434563, ""lng"": 17.816442612954102}","Ett stort utegym för både senior, lågintensiv och normalintensiv träning","Fakta om anläggningen:
Vid Gulsippans parklek i Hässelby villastad finns ett komplett utegym med redskap av trä och metall för träning av hela kroppen. Redskap är luftigt utplacerade i grönskande parkmiljö omgiven av vackra planteringar och naturmark.
Gulsippans utegym är inhägnat och underlaget som redskapen står på består i huvudsak av stenmjöl. Ett fåtal redskapen har träflis som underlag.
I avdelningen för senior och lågintensiv träning finns följande redskap:
bänkträning med pedaler för nedre delen av kroppen, 
 en bänk med stödjande räcke för balans och koordination, 
 vågstång för hand-, armbågs- och axelleder, 
 balansfjäder för balans, 
 handrullning för armbågs- och axelleder, 
 axelhjul för axlar, 
 axelbågar för axel- och kroppsrotering. I övrigt finns följande redskap:
stepbrädor för spänsthopp, 
 dips, 
 armhävningar och rygglyft som tränar armar, rygg, bröst och ben, 
 hip för bål, "
12754,Gärdets utegym,Sandhamnsgatan 64,59.34221432,18.1087543,"{""lat"": 59.34221431928637, ""lng"": 18.10875429905476}",Precis utanför Kampementsbadet hittar du ett av våra populära utegym i trä.,"Fakta om anläggningen:
Det är ett komplett utegym med marklyft, ryggdrag, armgång, situps, dips, bänkpress, axelpress, knäböj, upphopp och balansträning. , 
 Här finns även en räckhäv i olika nivåer samt en stretchyta. 
 Belysning finns och är påslagen till 22:00, Bra att veta:
Vatten finns att hämta utanför omklädningsrummen som tillhör Gärdets sportfält. 
 Under sommarperioden, då Kampementsbadet är öppet, anordnas instruktioner på utegymmet. Besök badet eller kontakta dem på 08-508 411 78 om du är intresserad. "
14825,Götaforsvägens utegym,Götaforsvägen 8,59.2729168,18.05481914,"{""lat"": 59.27291680096589, ""lng"": 18.054819140847588}",Välkommen till ett litet utegym och en parkourbana med konstgräs beläget i Götaforsvägens aktivitetspark.,"Utrustning
Följande utrustning finns på platsen:
Tressfit (fitness rig), 
 motorikbro, 
 vertikal stege, 
 stolphopp, 
 multisportarena. Övrigt
Utegymmet och parkourbanan är till för spontanidrott - de kan alltså inte bokas och är inte avsedd för organiserad idrott.
Kom ihåg att visa hänsyn till närboende och andra besökare. Om det är många som vill träna samtidigt, tänk på att samsas och ge alla möjlighet att träna.
Intill finns flera möjligheter till spontanidrott såsom boulebana, basketplan och liten bollplan. Utöver detta finns även sittplatser i närheten.
Aktivitetsparken har belysning fram till klockan 22.00.
Närmaste station: Stureby (tunnelbana)"
13629,Hammarby Sjöstads utegym,,59.30163124,18.11090124,"{""lat"": 59.30163123846492, ""lng"": 18.110901239931245}",Gymmet är i trä och är utformat så att den som tränar själv kan anpassa motståndet vid träningsredskapen.,"Här finns många olika stationer, bland annat för latsdrag, knäböj, axelpress, marklyft och sittande dips."
12769,Hellasgårdens utegym,,59.29001605,18.15988199,"{""lat"": 59.290016053335755, ""lng"": 18.159881985963946}","Precis vid motionsspåren och några friska steg från minigolfbana, restaurang, bad & bastu.","Fakta om anläggningen:
Här finns redskap för marklyft, ryggdrag, armgång, situps, dips, bänkpress, axelpress, knäböj, upphopp och balansträning. Här finns även räckhäv i olika nivåer samt en stretchyta. <br>"
13678,Hinderstorpsparkens utegym,,59.39001732,17.93529692,"{""lat"": 59.39001731963374, ""lng"": 17.93529692070522}","Ett komplett utegym med 17 stationer, nära Rinkebys nordöstra entré mot Järvafältet.","<h3>Stationer</h3>
Stolpe, 
 Knäböj, 
 Balans, 
 Häckar, 
 Benlyft, 
 Stubbar, 
 Stocklyft, 
 Rygglyft, 
 Armgång , 
 Axelpress, 
 Stretchyta, 
 Bröstpress, 
 Dips Situps, 
 Chinsräcke, 
 Singelstockar, 
 Lastdrag/ryggdrag, "
13630,Hjorthagens utegym,Nedanför Dianavägen 30,59.35774274,18.0998472,"{""lat"": 59.357742739428204, ""lng"": 18.099847197607467}",Utegymmet i Hjorthagsparken består av redskap där du främst använder din egen kroppsvikt i träningen.,"Fakta om anläggningen:
Redskap finns för till exempel armgång, situps, dips, bänkpress, axelpress, knäböj, upphopp och balansträning. 
 Redskapen är i trä och metall. 
 Underlaget är stenmjöl. 
 Utegymmet har belysning klockan 07.00 - 22.00. "
13631,Hornsbergs strands utegym,Hornsbergs strand,59.34082462,18.01082747,"{""lat"": 59.34082461978886, ""lng"": 18.010827470623095}",Ett mindre utegym som ligger vid vattnet längs Hornsbergs strand.,"Fakta om anläggningen:
Utegymmet består av chinsräcken, hävstänger samt redskap för lyft. 
 Redskapen är i trä. "
14749,Humlans utegym,Humlegården,59.34040036,18.07022858,"{""lat"": 59.34040036366292, ""lng"": 18.070228584114627}","Detta utegym ligger i Humlegården på Östermalm, intill Humlanhuset i den västra delen av parken.","Fakta om anläggningen:
Utegymmet består av workout-ställning, chinsräcke, hoppstubbar, ringar och ribbstol. 
 Underlaget består av flis. Bra att veta:
Toalett finns i Humlanhuset när verksamheten är öppen. "
15425,Husarviksparkens utegym,Labradorgatan 24,59.3607731,18.09556197,"{""lat"": 59.360773100458026, ""lng"": 18.09556197396744}",Detta utegym ligger vid strandpromenaden längs Husarviken i Norra Djurgårdsstaden.,"Fakta om anläggningen:
Redskapen är i trä och metall. 
 Underlaget är flis. "
14828,Högdalens utegym,Magelungsvägen 170,59.25810146,18.0417589,"{""lat"": 59.258101460272265, ""lng"": 18.041758897600417}","Välkommen till ett välutrustat och belyst stockgym, beläget i anslutning till motionsspåret “Håll-i-form-torpet”.","Utrustning
Utegymmet består av redskapen:
Stretchyta, 
 Stretchbom, 
 Stolpe för träningsband, 
 Bänkpress, 
 Rygglyft, 
 Sit up-ramp, 
 Trappsteg, 
 Häck, 
 Upphopp, 
 Dips, 
 Stocklyft, 
 Ryggdrag, 
 Barr, 
 Axelpress, 
 Armhäv, 
 Knäböj, 
 Rodd, 
 Balansbom, Övrigt
Utegymmet är till för spontanidrott – det kan alltså inte bokas och är inte avsedd för organiserad idrott.
Kom ihåg att visa hänsyn till närboende och andra besökare. Om det är många som vill träna samtidigt, tänk på att samsas och ge alla möjlighet att träna.
I anslutning till utegymmet finns motionsspåret “Håll-i-form-torpet”.
Utegymmet har belysning fram till klockan 22.00.
Närmaste stationer:
Högdalen (tunnelbana), 
 Rågsved (tunnelbana), "
13632,Hökarängsbadets utegym,,59.24677632,18.10916106,"{""lat"": 59.24677631878206, ""lng"": 18.109161063301602}",Utegym invid Hökarängsbadet.,"Fakta om anläggningen:
På utegymmet finns möjlighet till att träna hela kroppen:
magövningar på situpsbräda, 
 dip-bars, 
 armträning (med push-up-stång och och pull-up-stång), 
 ryggträning. Gymmet ligger precis vid Hökarängsbadet så vacker utsikt över Drevviken utlovas!
<br>
Bra att veta:
Gymmet ligger alldeles i nära anslutning till Drevvikens strandpromenad. Möjlighet till parkering finns."
14745,Johan skytteskolans utegym,Västerängsvägen 21,59.2774286,17.98264441,"{""lat"": 59.277428595832454, ""lng"": 17.98264440956023}",Invid Johan skytteskolan finns ett utegym.,"Fakta om anläggningen:
Gymredskapen är av metall. 
 Utegymmet byggdes 2019. 
 Utegymmet ligger på skolgården till Johan skytteskolan. "
15072,Judarängens utegym,Färjestadsvägen,59.34098495,17.90679903,"{""lat"": 59.34098494500651, ""lng"": 17.90679903284663}",Välkommen till Judarängens utegym.,"Utegymmet ligger i Judarskogens naturreservat vid entrén från Färjestadsvägen. Det är ett utegym i trä med ett underlag av träflis. Gymmet är belyst. Information om övningar finns på en anslagstavla.
Utegymmet ligger nära Ängbyplans tunnelbana."
12758,Kaknäs utegym,,59.33551306,18.13603987,"{""lat"": 59.335513055897074, ""lng"": 18.136039868602335}",Ligger i anslutning till motionsspåret i Kaknäs vid Sjöfartsverkets fritidsanläggning och är belyst till 22.00.,"Fakta om anläggningen:
Här finns 10 maskiner för träning av mage, midja, bröstpress, gångmaskin, höft, lats, rygg samt en crosstrainer. "
13633,Kanaans utegym,,59.34879587,17.85924717,"{""lat"": 59.348795867118504, ""lng"": 17.85924716544707}","Välkommen att träna på ett mindre utegym vid Mälarens kant, ett stenkast från Kanaans strandbad.","Om anläggningen
Utegymmet hittar du vid kanotklubbens lokaler vid första entrén till Kanaanbadet. Här finns träningsredskap för pull-up, sit-up och chest. Underlaget är av bark.
Bra att veta:
Vill du springa i samband med träningen så finns Grimsta motionsspår på andra sidan badet."
15242,Krausparkens utegym,Edward Swartz plan,59.30163681,17.96193271,"{""lat"": 59.30163680959073, ""lng"": 17.9619327128006}",Utegymmet ligger i Krausparken utmed Hägerstensvägen.," Fakta om anläggningen:
träningsredskap i trä, 
 armhävningsstänger i olika höjder, 
 sit-up-ramp för mage, 
 axelpress med stockar, 
 grusunderlag, "
13634,Kronobergsparkens utegym,Kronobergsparken,59.33334701,18.03694203,"{""lat"": 59.333347012784, ""lng"": 18.03694202644183}",Detta utegym ligger i Kronobergsparkens övre del.,"Fakta om anläggningen:
Utegymmet är avsett för lättare träning. Redskapen har rörliga delar och tränar både motorik och styrka. 
 Gymmet står på gummiasfalt. Bra att veta:
Intill utegymmet finns en hundrastgård och en basketplan. "
13635,Kungsholmsstrand utegym,Pipersgatan 45,59.33384602,18.04785921,"{""lat"": 59.33384601640562, ""lng"": 18.04785921295029}","Detta utegym ligger längs Kungsholms strandstig, nedanför Tekniska nämndhuset.","Fakta om anläggningen:
Gymmet består av sex olika redskap som kan användas på olika sätt efter dina egna förutsättningar. Gemensamt för redskapen är att du framförallt använder din egen kropp som motstånd. 
 Redskapen är i metall och trä. 
 Underlaget består av barkflis. "
14569,Kämpetorpsskolans utegym,Kedjevägen 59 (Medaljonggatan),59.28341761,17.99714028,"{""lat"": 59.283417605987935, ""lng"": 17.99714028247019}",Invid Kämpetorpsskolan och Kämpetorpshallarna finns ett utegym.,"Fakta om anläggningen:
Gymredskapen är av metall. 
 Utegymmet byggdes 2019. 
 Utegymmet ligger på skolgården till Kämpetorpsskolan. "
12759,Kärrtorps utegym,,59.285807,18.12549073,"{""lat"": 59.285807004764735, ""lng"": 18.125490726010717}",Ett komplett utegym som ni hittar mellan isrinken och motionsspåret. Det är ett lättare gym.,"Fakta om anläggningen:
Förutom den lättare vikten så är det ingen skillnad på utegymmets redskap. , 
 Här hittar du marklyft, ryggdrag, armgång, situps, dips, bänkpress, axelpress, knäböj, stubbar samt räckhäv i olika nivåer. Allt placerat runt en stretchyta. "
13636,Lappkärrsbergets utegym,"Docentbacken, Lappkärrsberget",59.37066406,18.06162758,"{""lat"": 59.37066406247235, ""lng"": 18.061627584116817}",Gymmet är utrustat med fasta redskap där du tränar med hjälp av din egen kroppsvikt.,"Fakta om anläggningen:
Här finns bland annat chins-, volt- och dipsräcke, ribbstol, balansbom och redskap för boxjump. 
 Redskapen består av metall och trä. 
 Underlaget är flis och på platsen finns också ett trädäck. "
13637,Liljeholmens utegym,"Liljeholmsgränd 15, Stockholm",59.31067469,18.02041671,"{""lat"": 59.31067469102819, ""lng"": 18.020416711095724}",Har olika svårighetsgrader och är anpassat för personer med olika behov och förutsättningar.,"Fakta om anläggningen:
Vissa delar av redskapen i utegymmet kan sättas ihop till en helhet som du kan springa igenom. På så sätt tränar du kondition, balans, smidighet och styrka samtidigt.
Bra att veta:
Det finns en trappa från utegymmet upp mot Nybohovsbacken som passar bra att använda som löptrappor. 
 Ett tips är att kombinera träningen i utegymmet med att springa eller promenera runt sjön Trekanten. 
 Utegymmet ligger nära Liljeholmens tunnelbana och Liljeholmstorgets galleria med butiker och restauranger. "
15208,Lilla Blecktornsparkens utegym,,59.30860138,18.08378007,"{""lat"": 59.30860138380193, ""lng"": 18.08378006876786}",Gymmet är i trä och vid varje station finns det skyltar med information om vilken muskelgrupp som tränas.,"Utegymmet ligger intill tennisbanan. Här kan du bland annat göra marklyft, chins, knäböj och upphopp med hjälp av stockar i olika storlekar."
13638,Lillsjöns utegym,Kvarnbacksvägen,59.34206309,17.95357901,"{""lat"": 59.34206308993851, ""lng"": 17.953579012950875}",Välkommen att träna vid Lillsjöns utegym.,"Fakta om anläggningen:
Vid Lillsjön, Kvarnbacksvägen, finns ett komplett utegym i trä. Information om övningar finns vid respektive redskap. Underlaget är stenmjöl.
Bra att veta:
Det tar cirka 15 min att gå till utegymmet från Abrahamsbergs tunnelbanestation."
15336,Linabergsstigens utegym,Tappvägen,59.36191963,17.9512925,"{""lat"": 59.36191962597151, ""lng"": 17.95129249575481}",Välkommen att träna vid Linabergsstigens utegym.,"Fakta om anläggningen:
Utegymmet består av redskap i trä och metall på ett underlag av träflis.
Bra att veta:
Det tar cirka 13 minuter att gå från tvärbanans hållplats vid Karlsbodavägen."
14746,Långbroparkens utegym,I Långbro park vid Hultgränd,59.28256913,17.97502496,"{""lat"": 59.282569133897724, ""lng"": 17.975024962135198}",Några enkla redskap för träning finns vid lekplatsen i Långbro park.,"Fakta om anläggningen:
volträcken, 
 chins, 
 armgång, "
14969,Lövsta utegym,Lövsta Koloniväg 1,59.38924545,17.79177467,"{""lat"": 59.3892454537954, ""lng"": 17.791774666920645}",Vid starten av Lövsta motionsspår ligger detta fullstora utegym av trä.,"<h3>Fakta om anläggningen:</h3>
Anläggningen är ett komplett utegym. Belysning finns och är påslagen till 22.30.
I utegymmet kan du träna
marklyft, 
 ryggdrag, 
 armgång, 
 situps, 
 dips, 
 bänkpress, 
 axelpress, 
 knäböj, 
 upphopp, 
 balansträning. Här finns även en räckhäv i olika nivåer samt en stretchyta. 
Bra att veta:
Bord och bänkar finns bredvid gymmet."
14992,Maltesholmsbadets utegym,,59.35603684,17.84197797,"{""lat"": 59.356036844924, ""lng"": 17.841977968771204}","På Maltesholmsbadets östra strand, finns ett inhägnat utegym med vacker utsikt över stranden.","Fakta om anläggningen:
Maltesholmsbadets utegym i Hässelby strand ligger nära stranden i den östra delen av badet intill Grimstaskogen. Utegymmet är inhägnat. De flesta redskapen är i metall och en del är i trä. De flesta redskapen är placerade på grus.
Här finns följande redskap:
crosstrainer för kondition, 
 squat spring för balans, 
 dip-bar för rygg, bröst, armar och axlar, 
 stepbrädor för spänsthopp, 
 dips, armhävningar och rygglyft som tränar armar, rygg, bröst och ben, 
 battling ropes för armar, axlar och bål, 
 pull-up för armar och benlyft, 
 sit-up för rygglyft och sit-ups, 
 legpress för ben, 
 roterande ståplatta för stretching, 
 chest för bröst, armar och axlar, 
 back för rygg, armar och axlar, 
 hip för bål, ben och balans, 
 airwalker för ben och höft. Bra att veta:
Vill du springa i samband med träningen så finns Grimsta motionsspår i närheten. Möjlighet till parkering finns vid Maltesholmsbadet."
13639,Mellanbergsparkens utegym,"Personnevägen 103, Hägersten",59.29156638,17.98112353,"{""lat"": 59.29156638159436, ""lng"": 17.981123527866504}","Utegym i Mellanbergsparken, nära utomhusbassängen Hägerstensbadet.","Fakta om anläggningen:
Utegymmet är byggt i stål och trä. 
 Informationsskyltar finns på redskapen. 
 Belysning finns. Bra att veta:
I närheten ligger Hägerstensbadets utomhusbassäng och Västertorps sim- och idrottshall. "
14991,Melonparkens utegym,,59.36736199,17.83009172,"{""lat"": 59.367361988509266, ""lng"": 17.830091719825965}",I Melonparken finns ett utegym med redskap i metall där du kan träna allting!,"Fakta om anläggningen:
Melonparkens utegym i Hässelby ligger mellan öppna gräsytor och naturmark i stadsdelsparken Melonparken. Underlaget består av bark och redskapen är i metall. Här finns en armgång, parallella bommar för stående armgång, balansbom, situp och rygglyft.
Bra att veta:
I Melonparken finns förutom utegymmet även boulebanor och lekplats."
12772,Mossens utegym,,59.32906268,17.96426685,"{""lat"": 59.329062684966225, ""lng"": 17.964266854867766}",Utegymmet ligger i anknytning till Stora Mossens idrottsplats.,"Fakta om anläggningen:
Redskap finns för marklyft, ryggdrag, armgång, situps, dips, bänkpress, axelpress, knäböj, upphopp och balansträning. 
 Här finns även räckhäv i olika nivåer samt en stretchyta. Bra att veta:
T-bana till Stora Mossen. Promenad 700 meter. , 
 På Stora Mossens IP finns också fotbollsplaner, två idrottshallar, två ishallar och friidrottsytor. 
 I ishallarnas entré finns en servering. "
13640,Mälarhöjdsbadets utegym,,59.29958023,17.92498835,"{""lat"": 59.299580228064386, ""lng"": 17.9249883528536}",Detta utegym helt i trä ligger vid Mälarhöjdsbadet.,"Redskap finns för
marklyft, 
 ryggdrag, 
 armgång, 
 situps, 
 dips, 
 bänkpress, 
 axelpress, 
 knäböj, 
 upphopp, 
 balansträning. Här finns även räckhäv i olika nivåer samt en stretchyta.
Kombinera din träning 
Du kan kombinera din träning med motionsspåret Bredängsspåret eller ett dopp i Mälarhöjdsbadet!"
15317,Måsens utegym,Nära parkleken Måsen.,59.24551216,18.06007033,"{""lat"": 59.24551215708316, ""lng"": 18.060070329649143}",Utegymmet ligger i närheten av parkleken Måsen.,"Fakta om anläggningen: 
Redskapen erbjuder en stor variation av övningar med egen kroppsvikt. Exempelvis finns:
hävstänger på olika höjd, 
 dips, 
 pull-ups , 
 romerska ringar, 
 battling ropes för kondition och arm- och ryggträning, 
 bänk för rygg – och magövningar, 
 hopphäckar. , Bra att veta:
Utegymmet ligger i närheten av parkleken Måsen, friluftsbadet i Fagersjö och Fagersjöskolan."
13641,Nytorps gärdes utegym,,59.28911304,18.10760143,"{""lat"": 59.28911304325135, ""lng"": 18.107601426438787}",Utegymmet ligger bredvid Nytorpsbadet mellan Björkhagen och Kärrtorp. Redskap finns för allting.,"Utegymmet är tillgängligt för alla, öppet årets alla dagar och det är gratis att använda."
13642,Nälsta utegym,,59.36953504,17.88022225,"{""lat"": 59.36953503508683, ""lng"": 17.880222253427643}",Nälsta utegym ligger öppet på Nälstafältet intill Skattegårdsvägen.,"Fakta om anläggningen:
Utegymmet ligger omgivet av öppna gräsytor intill Skattegårdsvägen. Redskapen är alla av trä och anläggningen står på underlag av grus.
I utegymmet finns redskap för:
marklyft, 
 ryggdrag, 
 armgång, 
 situps, 
 dips, 
 bänkpress, 
 axelpress, 
 knäböj, 
 upphopp, 
 balansträning. Här finns även hävräcke i olika nivåer samt en stretchyta. 
Bra att veta:
Inom området finns också två boulebanor för spontanspel."
13643,Oppundaparkens utegym,,59.27123221,18.07256872,"{""lat"": 59.27123221387399, ""lng"": 18.072568716719488}",Utegym invid Oppundaparken.,"Fakta om anläggningen: 
Ett komplett stockgym med:
magträning, 
 upphopp på stubbar och häck-hopp, 
 knäböj, 
 dips, 
 chins, 
 balansövningar. , Bra att veta: 
Det ligger en lekplats och en bollplan i anslutning till utegymmet. 
Gymmet är belyst. , 
 Gymmet ligger i anslutning till Majroskogen med möjlighet till motion och rekreation. "
13713,Oxtungans utegym,,59.37094873,17.81881474,"{""lat"": 59.37094872871623, ""lng"": 17.818814742956622}",Oxtungans utegym finns i anslutning till Oxtungans lekplats.,"Fakta om anläggningen:
Oxtungans utegym ligger i parkmiljö omgiven av stora träd nära Oxtungans lekpark. Underlaget för redskapen består av bark och redskapen är av metall och trä.
Här finns följande redskap:
stepbrädor för spänsthopp, 
 dips, 
 armhävningar och rygglyft som tränar armar, rygg, bröst och ben, 
 back'n'abs för rygglyft och situps, 
 monkey-bars med romerska ringar och armgång för axlar, armar, rygg och bröst. 
 Hävräcke på två olika höjder för chins/pushups för rygg, armar och axlar, 
 ladders för olika stretchövningar. Bra att veta:
Här finns också en basketbollkorg att träna på."
13644,Pålsundsparkens utegym,,59.31906069,18.02783258,"{""lat"": 59.31906068781133, ""lng"": 18.02783258265579}",Ett utegym i metall.,"Fakta om anläggningen:
Här kan du göra pullups och situps. Det finns ett redskap för överkroppsträning, för ryggen samt för stående crosstraining. 
Utegymmet är beläget längs med den fina strandpromenaden. Här finns även en instruktionstavla och en bänk. "
13645,Rålambshovsparkens utegym,Rålambshovsparken,59.32933957,18.02518447,"{""lat"": 59.32933956546485, ""lng"": 18.025184468359463}","Detta utegym ligger i mitten av Rålambshovsparken, mot Rålambshovsleden.","Fakta om utegymmet
Gymmet består av sex olika redskap som kan användas på olika sätt efter dina egna förutsättningar. Gemensamt för redskapen är att du använder din egen kropp som motstånd. 
 Redskapen är i metall och trä. Underlaget består av barkflis. 
 Gymmet innehåller även en så kallad street pole för poledance och polefitness samt en yta med konstgräs för att underlätta för till exempel stretching. I övrigt består underlaget av barkflis. Bra att veta:
Det finns en offentlig toalett i parken, som ligger i närheten av amfiteatern. "
15275,Saimaparkens utegym,Mitt i Akalla,59.41577637,17.9157209,"{""lat"": 59.41577637121298, ""lng"": 17.915720898596753}",Välkommen till Saimaparkens utegym! I en grönskande park mitt i Akalla.,"Förutom utegym finns här en lekpark, solstolar och en gräsyta med fotbollsmål."
13646,Sannadalsparkens utegym,Gröndalsvägen 61,59.31509573,18.00845661,"{""lat"": 59.31509572609946, ""lng"": 18.008456611096065}",Utegym i närheten av lekplatsen i Sannadalsparken i centrala Gröndal.,"Fakta om anläggningen:
Utegymmet är byggt i stål och trä. 
 Informationsskylt om redskapen finns. , 
 Belysning finns. Bra att veta:
Ligger nära tvärbanan. 
 Ligger i Sannadalsparken med lekplats, plaskdamm, bollplan och pingisbord finns. 
 I närområdet finns sjön Trekanten. "
12760,Skarpnäcksfältets utegym,Horisontvägen 15,59.27017495,18.11992184,"{""lat"": 59.270174950821236, ""lng"": 18.119921839929}",Utegymmet är beläget intill basebollplanen på Skarpnäcks sportfält.,"Fakta om anläggningen:
Det är ett komplett utegym med marklyft, ryggdrag, armgång, situps, dips, bänkpress, axelpress, knäböj, upphopp och balansträning. , 
 Här finns även en räckhäv i olika nivåer samt en stretchyta. "
13647,Skärholmens utegym,,59.28300434,17.9019319,"{""lat"": 59.28300433786419, ""lng"": 17.901931895749236}",Stockholms stads erbjuder ett mindre utegym helt i trä nära Skärholmens gård.,"Utrustningen är utformad så att alla oavsett ålder kan använda den.
Den har de grundläggande funktioner som krävs för att träna och hålla kroppen i form."
13648,Smedsuddsbadets utegym,Smedsuddsbadet,59.32569204,18.0206935,"{""lat"": 59.32569203632055, ""lng"": 18.02069349575226}",Detta lilla utegym ligger längs gångvägen som löper förbi Smedsuddsbadet.,"Fakta om anläggningen:
På utegymmet finns ett chinsräcke i olika nivåer samt ett redskap för lyft. "
13649,Solbergaskogens utegym,"Nära Sulvägen 22, Hägersten",59.28575987,18.00616381,"{""lat"": 59.28575987124555, ""lng"": 18.006163811093984}",Olika redskap i trä och metall ligger nära parkleken Kristallen i Solberga. Finns en mindre konstgräsplan och boulebana.,"Nära parkleken Kristallen i Solbergaskogen finns ett mindre utegym.
Fakta om anläggningen:
Utegymmet har sju redskap, varav två rörliga. Redskap finns för ryggdrag, marklyft, dips, pullups, situps, axelpress, knäböj, upphopp, armhävningar. 
 Gymredskapen är av trä och metall. 
 Belysningen vid parkvägen intill är tänd när det är mörkt. 
 Utegymmet byggdes 2019. Bra att veta:
Utegymmet ligger nära Sulvägen 22 i stadsdelen Solberga. 
 Busshållplats Sulvägen trafikeras av linje 142, 300 meter promenad. 
 Närmaste toalett finns i parkleken Kristallen, och är öppen under parklekens öppettider. "
13650,Solbrännans utegym,Hörnet Götalandsvägen & Folkparksvägen,59.28196329,18.01627907,"{""lat"": 59.28196328574172, ""lng"": 18.016279068765947}",Utegymmet har sju redskap av trä och metall. I närheten finns Solbrännans skejtpark och en grillplats.,"Fakta om anläggningen:
Utegymmet har sju redskap, varav två rörliga. Redskap finns för ryggdrag, marklyft, dips, pullups, situps, axelpress, knäböj, upphopp, armhävningar. 
 Utegymmet byggdes 2019. 
 Gymredskapen är av trä och metall. 
 Belysning. Bra att veta:
Utegymmet ligger i parken Solbrännan vid hörnet Götalandsvägen-Folkparksvägen. 
 Älvsjö station, cirka 500 meters promenad. 
 Närmaste toalett finns på Älvsjö torg. 
 I närheten finns en skejtpark och en grillplats. "
13651,Solviks utegym,Ålstens skogsväg,59.31565918,17.96604456,"{""lat"": 59.31565917509359, ""lng"": 17.966044555276746}",Välkommen att träna vid Solviks utegym.,"Fakta om anläggningen:
Vid Solviksbadet, Ålstens skogsväg 24, finns ett komplett utegym i trä. Information om övningar finns vid respektive redskap.
Bra att veta:
Utegymmet ligger i anslutning till Solviksbadet och här finns även ett motionsspår. Det tar cirka 13 minuter att promenera från Smedslättens spårvägsstation. Parkeringsmöjlighet finns. Sommartid finns tillgång till toaletter vid badet."
12771,Spånga idrottsplats utegym,Solhems hagväg 2,59.38764495,17.90763679,"{""lat"": 59.38764495064225, ""lng"": 17.907636791471468}",Ett komplett utegym mellan fotbollshallen och löparbanorna på Spånga IP.,"Fakta om anläggningen:
Här finns marklyft, ryggdrag, armgång, situps, dips, bänkpress, axelpress, knäböj, upphopp och balansträning. , 
 Här finns också räckhäv i olika nivåer samt en stretchyta. "
13652,Spånga utegym,,59.38775341,17.87278953,"{""lat"": 59.38775340729024, ""lng"": 17.872789529549113}",Ett utegym för seniorer med specialredskap bredvid en populär boulebana i närheten av Spånga centrum.,"En anläggning som är särskilt skapad för dig i Spånga-Tensta stadsdelsområde med specialgjorda redskap som är lätta att använda för seniorer.
Parkstråk längs Kronofogdevägen i Spånga med boulebana, gång- och cykelväg. En parksoffa finns vid boulebanan och parken används även flitigt för hundrastning."
12770,Stora Sköndals utegym,,59.24934612,18.12574241,"{""lat"": 59.249346122814714, ""lng"": 18.125742414354622}","Stora Sköndal är Stockholms första tillgänglighetsanpassade utegym, placerat vid Stora Sköndals handikappbad.","Fakta om anläggningen:
Stora Sköndals utegym ligger bakom bassängbadet med Drevviken bara ett stenkast bort.
Här har vi i största möjliga mån försökt anpassa det ursprungliga utegymmet. Vi har utgått från en person i rullstol, gjort en del redskap greppvänligare samt tagit fram två helt nya redskap."
13653,Stråkets utegym,,59.36011156,17.83099673,"{""lat"": 59.36011156431526, ""lng"": 17.83099672995575}","Välkommen att träna på ett enklare utegym vid Stråkets parklek, med vacker utsikt mot Mälaren.","Fakta om anläggningen:
Utegymmet hittar du i anslutning till parkleken Stråket. Redskapen står på gräs. Här finns redskap så att du bland annat kan göra pull-ups och sit-ups samt en dip-bar.
Bra att veta:
Hässelby strands tunnelbanestation ligger på gångavstånd."
15176,Svampvägens utegym,Mellanvägen11,59.28157654,18.08057726,"{""lat"": 59.28157654384798, ""lng"": 18.080577264752687}",Välkommen till ett litet utegym med barkunderlag beläget mellan Svampvägen och Murklevägen.,"Utrustning
På platsen finns följande redskap:
Chins, 
 Upphopp, 
 Ryggdrag, Övrigt
Utegymmet är till för spontanidrott - det kan alltså inte bokas och är inte avsedd för organiserad idrott.
Kom ihåg att visa hänsyn till närboende och andra besökare. Om det är många som vill träna samtidigt, tänk på att samsas och ge alla möjlighet att träna.
Intill utegymmet finns sandlåda och sittplatser.
Närmaste stationer:
Sockenplan (tunnelbana), 
 Skogskyrkogården (tunnelbana), "
14799,Svandammsparkens utegym,Korsningen Tellusborgsvägen & Vattenledningsvägen,59.30171485,18.00583391,"{""lat"": 59.30171485366223, ""lng"": 18.005833907436298}","Ligger i Midsommarkransen. I parken finns även plaskdamm, lekplats, stora gräsytor och en mindre bollplan.","Fakta om anläggningen:
Ett litet gym byggt i trä och stål. 
 Det finns en informationsskylt om redskapen och träningstips intill gymmet. Bra att veta:
I parken finns bland annat plaskdamm, utedusch och toalett. 
 Gångavstånd till Midsommarkransens tunnelbana. 
 Restauranger och caféer finns i närområdet. "
13654,Sätradals utegym,,59.28616729,17.91714908,"{""lat"": 59.28616729238736, ""lng"": 17.9171490843707}",I Sätradalsparken hittar du ett utegym med sex olika redskap där du använder kroppen som motstånd.,"I Sätradalsparken hittar du ett utegym med sex olika redskap där du använder kroppen som motstånd. Gymmet är därmed lämpligt för människor i alla åldrar och oberoende av funktionsnedsättning. Gymmet är del av Sätra motionsspår, ett motionsspår i upplyst miljö på 2,5 kilometer som riktar sig till flickor och kvinnor."
13655,Sätrastrandsbadet utegym,"Alsätravägen 250, Skärholmen",59.28658779,17.8934048,"{""lat"": 59.286587787420046, ""lng"": 17.89340479760243}","Ett tillgängligt utegym i anslutning till strandbad med badramp, badbrygga och motionsspår.","Redskap finns för
marklyft, 
 ryggdrag, 
 armgång, 
 situps, 
 dips, 
 bänkpress, 
 axelpress, 
 knäböj, 
 upphopp, 
 balansträning. Här finns även räckhäv i olika nivåer samt en stretchyta.
Kombinera din träning
Du kan kombinera din träning med motionsspåret Skärholmsspåret eller ett dopp i Sätrastrandsbadet!"
13656,Tantolundens utegym,,59.31372358,18.03592731,"{""lat"": 59.31372358257336, ""lng"": 18.03592731109596}",Gymmet är i trä och är utformat så att den som tränar själv kan anpassa motståndet vid träningsredskapen.,"Fakta om anläggningen:
Här finns ett brett utbud av stationer och möjlighet att träna olika muskelgrupper. Vid varje station finns det skyltar med information om vilken muskelgrupp som tränas. Gymmet är tillgänglighetsanpassat."
15528,Teaterparkens utegym,Slutet av Förskottsvägen.,59.29818233,17.98637554,"{""lat"": 59.298182331252036, ""lng"": 17.98637553807809}",Utegymmet ligger i närheten av amfiteatern i Teaterparken i Telefonplan. Du när gymmet via parkvägar.,"Fakta om anläggningen:
Armgång, 
 Dips, 
 Ryggluft, 
 Pallar, "
13657,Tessinparkens seniorgym,Tessinparken mot Askrikegatan,59.34512973,18.0947082,"{""lat"": 59.345129731474984, ""lng"": 18.094708197606593}",I Tessinparkens norra del finns ett utegym särskilt anpassat för seniorer.,"I Tessinparken, vid bollplanen strax intill parkleken, finns ett utomhusgym särskilt anpassat för dig som är senior. En motionsform man kan genomföra utan att stressa. Det är också en plats för social samvaro, med bord för medhavd fika intill och bänkar att vila sig på.
Seniorgymmet anlades som svar på ett medborgarförslag från en boende i stadsdelen.
Fakta om anläggningen:
Olika redskap för till exempel styrke- och balansträning i anpassad miljö. 
 Redskap i metall och trä. 
 Underlaget är stenmjöl. Bra att veta:
Offentlig tillgänglighetsanpassad toalett finns i parken. När parklekshuset är öppet finns toalett att låna där. "
15454,Tranebergsängens utegym,Tranebergsvägen,59.33520016,17.98763903,"{""lat"": 59.335200159001324, ""lng"": 17.98763902644202}",Välkommen att träna vid Tranebergsängen.,"Fakta om anläggningen:
Vid Tranebergsängens fritidspark finns några gymredskap i trä på ett underlag av stenmjöl. Förslag på övningar finns i anslutning till varje redskap.
Bra att veta:
I parken finns även en multisportbana med tennisplan, basketkorgar och bandymål, skateboardramper, boulebana, samt en lekplats med plaskdamm. Gymmet ligger cirka 9 minuters promenad från Alviks tunnelbana."
13658,Vanadislundens utegym,Vanadislunden i korsningen Frejgatan/Sveavägen,59.34720399,18.05295897,"{""lat"": 59.34720399359923, ""lng"": 18.052958966917657}",Vanadislundens utegym ligger vid den nedre lekplatsen mot Sveavägen.,"Fakta om anläggningen:
Alla redskap i detta utegym ska kunna fungera för alla former av kroppsviktsträning, från nybörjare till mer avancerad. Detta utegym är utformat för att kunna utveckla och träna kroppens sju grundrörelser; höftfällning, knäböj, utfall, press, drag, rotation och gå/springa. Exempel på utrustning är chinsräcke, ringar för armgång, hoppstubbar och situpsbräda. 
 Utegymmet är i trä och metall. Underlaget är stenmjöl. 
 På platsen finns skyltar med information om hur redskapen används. 
 Utomhusgymmet är tillgänglighetsanpassat. "
13659,Vasaparkens utegym,"Vasaparken, mot Torsgatan",59.3390403,18.04044514,"{""lat"": 59.33904029967514, ""lng"": 18.040445139933837}",Detta utegym ligger på höjden i Vasaparkens västra del.,"Fakta om anläggningen:
All utrustning i detta utegym ska kunna fungera för alla former av kroppsviktsträning, från nybörjare till mer avancerad. Utegymmet är utformat för att kunna utveckla och träna kroppens sju grundrörelser; höftfällning, knäböj, utfall, press, drag, rotation och gå/springa. Exempel på utrustning är chinsräcke, volträcke, ribbstol och hoppstubbar. 
 Det finns även ett trädäck och en konstgräsyta för egna övningar på marken. 
 Gymmet består av två delar. Den ena delen har konstgräs som underlag och den andra har stenmjöl. 
 På platsen finns skyltar med information om hur redskapen används. Bra att veta:
Det är en backe upp till gymmet. Utomhusgymmet i Vanadislunden är tillgängligt och lättare att ta sig till för dig som har svårt att gå. "
15315,Vespern,,59.25036776,18.11469712,"{""lat"": 59.25036775977103, ""lng"": 18.114697124411812}",Utegym vid Skönstaviks allé.,"Fakta om anläggningen: 
Ett litet utegym med ett fåtal redskap som ligger på lekplatsen Vespern vid Skönstaviks allé. På platsen finns ett multiträningsredskap med övningar för:
ben, 
 balans, 
 mage , 
 skuldror, 
 situpsbräda , Bra att veta: 
Gymredskapen är placerade i anslutning till lekplatsen. I parken som ligger alldeles i närheten, bakom Sköndalsvägen, finns en multibollplan och boulebana."
13660,Vintervikens utegym,Vinterviksvägen 8,59.31188359,18.00248601,"{""lat"": 59.311883592245934, ""lng"": 18.002486012948733}",Utegym nära Blommensbergs bollplan och Vintervikshallen. Gymmet är upprustat under 2019.,"Fakta om anläggningen: 
Utegymmet är byggt med stockar och passar dig som vill ha lite större utmaning i din träning. Bra att veta:
Ligger nära idrottshallen Vintervikshallen</a>. , 
 I närheten finns grönområdet Vinterviken med café och restaurang. , "
15198,Vårbergstoppens utegym,,59.27309417,17.8776023,"{""lat"": 59.27309416708779, ""lng"": 17.87760229574852}",På parkvägen upp mot Vårbergstoppen finns ett utegym med flera redskap.,"Fakta om anläggningen:
I utegymmet finns redskap för
marklyft, 
 ryggdrag, 
 situps, 
 dips, 
 pullups, 
 knäböj, 
 upphopp, 
 balansträning. Här finns även räckhäv i olika nivåer samt en stretchyta.
Bra att veta:
Utegymmet ligger i parken Vårbergstoppen. Här finns spännande lekmiljöer, magnifika utsiktspunkter, fågelskådningsplatser samt utflyktsplatser med picknickbord och grillar. 
 Närmaste buss- eller tunnelbanestation är Vårbergs station. , 
 Det finns ingen besöksparkering för närvarande. , "
14823,Vårflodsparkens utegym,Viborgska vägen 24,59.28587225,18.05917503,"{""lat"": 59.28587225159749, ""lng"": 18.059175028291413}",Välkommen till ett litet utegym med grusunderlag beläget i Vårflodsparken.,"Utrustning
Följande utrustning finns på platsen:
Dips, 
 Sit-up ramp, 
 Upphopp, 
 Armhävningsstång, 
 Chins, 
 Armgång, Övrigt
Utegymmet är till för spontanidrott - det kan alltså inte bokas och är inte avsedd för organiserad idrott.
Kom ihåg att visa hänsyn till närboende och andra besökare. Om det är många som vill träna samtidigt, tänk på att samsas och ge alla möjlighet att träna.
Intill utegymmet finns flera möjligheter till spontanidrott såsom bollplan, basketplan och pingisbord. Utöver detta finns även lekpark, plaskdamm och sittplatser med bord, samt grillplats i närheten.
Närmaste station: Sockenplan (tunnelbana)"
13661,Vårgårdens utegym,,59.2768623,17.88450568,"{""lat"": 59.2768623029392, ""lng"": 17.884505683678785}",Intill Vårgårdens parklek hittar du ett utegym med fem olika redskap där du använder kroppen som motstånd.,Intill Vårgårdens parklek hittar du ett utegym med fem olika redskap där du använder kroppen som motstånd. Gymmet är därmed lämpligt för människor i alla åldrar och oberoende av funktionsnedsättning.
15299,Älvsjöskogens lilla utegym,Älvsjöskogens motionsspår,59.2662669,17.99589466,"{""lat"": 59.26626690365448, ""lng"": 17.99589465948545}",Älvsjöskogens lilla utegym ligger utmed motionsspåret som löper bredvid järnvägsspåret.,"Fakta om anläggningen:
Gymredskapen består av:
bänkar för situps, 
 räcken för chins, pull-ups och dips, 
 redskap för arm- och rygglyft, 
 step-up-bräda (gråsuggor), Bra att veta:
Belysningen är tänd under de mörka timmarna mellan 05.00-23.00. 
 Utegymmet ligger utmed motionsspåret som passerar utmed järnvägsspåret. 
 Parkering på villagatorna omkring. "
13663,Älvsjöskogens stora utegym,Älvsjöskogens huvudentré,59.2708673,17.99455267,"{""lat"": 59.270867300783166, ""lng"": 17.994552668949055}",Älvsjöskogens stora utegym ligger vid huvudentrén till Älvsjöskogens naturreservat och Älvsjö gamla bollplan.,"Fakta om anläggningen:
Gymredskapen består av:
bänkar för situps, 
 räcken för chins, pull-ups och dips. Bra att veta:
Belysningen är tänd under de mörka timmarna mellan 05.00-23.00. 
 Utegymmet ligger vid huvudentrén till Älvsjöskogens naturreservat och Älvsjö gamla bollplan. 
 Utmed motionsspåret finns ett mindre utegym. 
 Älvsjö station, cirka 1,4 km promenad. 
 Busshållplats Viktoriavägen, linje 144, cirka 500 m promenad. 
 Parkering på villagatorna omkring. "
13675,Ärvinge utegym,,59.39925414,17.93349707,"{""lat"": 59.399254140296705, ""lng"": 17.93349706839304}","Ärvinge utegym ligger mellan bostäder och Järvafältet, granne med Ärvinge bollplan och lekparken Trudelutten.","<h3>Anpassat för rullstol</h3>
En del av utegymmet är byggt för att passa personer som sitter i rullstol. Det finns även flera vikter som är lätta och kan användas för mindre starka personer."
12762,Ågestas utegym,,59.22270356,18.10487046,"{""lat"": 59.22270356416328, ""lng"": 18.10487045527016}",Ågesta motionsområde har ett utegym i trä.,"Fakta om anläggningen:
Här finns redskap för marklyft, ryggdrag, armgång, situps, dips, bänkpress, axelpress, knäböj, upphopp och balansträning. , 
 Här finns även räckhäv i olika nivåer samt en stretchyta. "
13662,Årstaskogens utegym,,59.30279668,18.0598118,"{""lat"": 59.30279667900182, ""lng"": 18.059811795750623}",Ett utegym i Årstaskogen.,
13676,Årstavikens utegym,Svärdlångsvägen 22 (Årsta gårds bollplan),59.30486162,18.0414561,"{""lat"": 59.30486161681727, ""lng"": 18.041456097603717}","Ett välutrustat stockgym beläget i vackra Årstaskogen, där du kan träna till utsikt av Årstaviken.","Utrustning
Utegymmet består av redskapen:
Armgång, 
 Latsdrag, 
 Marklyft, 
 Bröstpress, 
 Situps, 
 Stubbar (för upphopp m.m.), 
 Stretchyta, Övrigt
Vid detta utegym är stockarna en aningen lättare för att bättre tillgodose den målgrupp som rör sig mest frekvent i området.
Utegymmet är till för spontanidrott – det kan alltså inte bokas och är inte avsedd för organiserad idrott.
Kom ihåg att visa hänsyn till närboende och andra besökare. Om det är många som vill träna samtidigt, tänk på att samsas och ge alla möjlighet att träna.
Intill utegymmet finns sittplatser med bord.
Närmaste station: Årstaberg (tvärbana/pendeltåg)"
12763,Östbergas utegym,Östbergabackarna/Götalandsvägen 150,59.28643071,18.03196255,"{""lat"": 59.286430706981776, ""lng"": 18.03196255342173}",Ett välutrustat och belyst stockgym med grusunderlag beläget i Östbergabackarnas naturområde intill Lisebergs bollplan.,"Fakta om anläggningen:
Utegymmet består av redskapen:
Bänkpress, 
 Stocklyft, 
 Ryggdrag, 
 Armhävningsstång, 
 Dips, 
 Armgång, 
 Balansbom, 
 Knäböj, 
 Upphopp, 
 Marklyft, 
 Axelpress, 
 Dragband, 
 Stretchyta, 
 Rygglyft, 
 Sit-up ramp, Här finns även en räckhäv i olika nivåer samt en plan stretchyta.
Liten lekplats finns intill.
Övrigt
Utegymmet är till för spontanidrott - det kan alltså inte bokas och är inte avsedd för organiserad idrott.
Kom ihåg att visa hänsyn till närboende och andra besökare. Om det är många som vill träna samtidigt, tänk på att samsas och ge alla möjlighet att träna.
Intill utegymmet finns lekpark och sittplatser. Utöver detta finns även boulebana i närheten.
Utegymmet har belysning fram till klockan 22.00.
Närmaste station: Årstafältet (tvärbana)"
